NVS-01 (IRNSS-1J)       
1 56759U 23076A   26074.23601124 -.00000341  00000+0  00000+0 0  9995
2 56759   2.3939 248.2389 0006831  47.7229  91.3364  1.00268727 10173
COSMOS 2569 (703K)      
1 57517U 23114A   26072.99419750  .00000055  00000+0  00000+0 0  9995
2 57517  65.2480  75.8292 0012947 292.2655  67.6350  2.13103986 20236
BEIDOU-3 M28 (C50)      
1 58654U 23207A   26072.72076170  .00000012  00000+0  00000+0 0  9990
2 58654  55.6694  65.5222 0004977 305.9000  54.0758  1.86229773 15067
BEIDOU-3 M26 (C48)      
1 58655U 23207B   26073.59215816  .00000016  00000+0  00000+0 0  9993
2 58655  55.6721  65.4789 0005713 291.4407  68.5207  1.86229709 15063
GSAT0225 (GALILEO 29)   
1 59598U 24079A   26073.38599072  .00000038  00000+0  00000+0 0  9998
2 59598  55.0556 103.7282 0002816 259.7008 104.1588  1.70475013 11709
GSAT0227 (GALILEO 30)   
1 59600U 24079C   26072.39006147  .00000031  00000+0  00000+0 0  9991
2 59600  55.0508 103.7545 0000363  35.4320 324.6432  1.70474883 11737
GSAT0232 (GALILEO 32)   
1 61182U 24167A   26048.66150565  .00000069  00000+0  00000+0 0  9995
2 61182  55.2225 224.5881 0003600 296.6314 116.1306  1.70443939  8265
GSAT0226 (GALILEO 31)   
1 61183U 24167B   26072.77594144  .00000035  00000+0  00000+0 0  9993
2 61183  55.2155 223.9355 0001584 137.4612  46.3182  1.70474359  9222
BEIDOU-3 M25 (C47)      
1 61186U 24168B   26074.16761419 -.00000018  00000+0  00000+0 0  9995
2 61186  54.5564 305.5111 0004130 319.4254 183.3874  1.86230237 10035
BEIDOU-3 M27 (C49)      
1 61187U 24168C   26072.41641809 -.00000027  00000+0  00000+0 0  9992
2 61187  54.5535 305.5552 0002951  22.0693 161.6517  1.86230457  7477
GPS BIII-7  (PRN 01)    
1 62339U 24242A   26072.36572414 -.00000084  00000+0  00000+0 0  9997
2 62339  54.8883 338.0689 0016012 357.5685 181.1760  2.00570015  9336
NVS-02 (IRNSS-1K)       
1 62850U 25020A   26073.88381820  .00000759  00000+0  65734-3 0  9994
2 62850  20.8319 293.8522 7349829  86.6883 346.7214  2.17745063  8929
QZS-6 (QZSS/PRN 200)    
1 62876U 25023A   26074.08555727 -.00000234  00000+0  00000+0 0  9997
2 62876   0.0202 100.9048 0002204 261.7048 291.3489  1.00274709  4014
COSMOS 2584 (704K)      
1 63130U 25042A   26068.65774225  .00000013  00000+0  00000+0 0  9998
2 63130  65.0271  76.1843 0007760 237.1910 122.7645  2.13103483  7928
GPS BIII-8  (PRN 21)    
1 64202U 25116A   26073.60598262 -.00000048  00000+0  00000+0 0  9996
2 64202  55.1746  34.9370 0008595 328.4748 210.8678  2.00552626  5974
COSMOS 2596 (708K)      
1 65590U 25206B   26074.30975255 -.00000020  00000+0  00000+0 0  9996
2 65590  64.6879 318.2563 0012708 316.5107 176.9222  2.13100410  3910
GSAT0234 (GALILEO 34)   
1 67162U 25302C   26074.08993896  .00000041  00000+0  00000+0 0  9998
2 67162  54.2713 104.8109 0002770 226.2129 140.3863  1.70474988  1575
